[{"OBJECT_NAME":"IRIDE FM8","OBJECT_ID":"2025-276AN","EPOCH":"2026-03-09T18:00:06.771168","MEAN_MOTION":15.18849115,"ECCENTRICITY":0.00041319,"INCLINATION":97.4262,"RA_OF_ASC_NODE":143.9879,"ARG_OF_PERICENTER":23.1376,"MEAN_ANOMALY":337.0044,"EPHEMERIS_TYPE":0,"CLASSIFICATION_TYPE":"U","NORAD_CAT_ID":66702,"ELEMENT_SET_NO":999,"REV_AT_EPOCH":1532,"BSTAR":0.0003807505,"MEAN_MOTION_DOT":7.869e-5,"MEAN_MOTION_DDOT":0},{"OBJECT_NAME":"T.MICROSAT-1","OBJECT_ID":"2025-276DE","EPOCH":"2026-03-09T18:04:16.042944","MEAN_MOTION":15.19633457,"ECCENTRICITY":0.00017032,"INCLINATION":97.4229,"RA_OF_ASC_NODE":144.0903,"ARG_OF_PERICENTER":122.7735,"MEAN_ANOMALY":237.3665,"EPHEMERIS_TYPE":0,"CLASSIFICATION_TYPE":"U","NORAD_CAT_ID":66766,"ELEMENT_SET_NO":999,"REV_AT_EPOCH":1533,"BSTAR":0.00037369348,"MEAN_MOTION_DOT":7.899e-5,"MEAN_MOTION_DDOT":0}]
